#dP2018  2 28  0  0  0.00000000      96 __u+U IGS08 FIT  IAC
## 1990 259200.00000000   900.00000000 58177 0.0000000000000
+   87   C01C02C03C04C05C06C07C08C09C10C11C12C13C14E01E02E03
+        E04E05E07E08E09E11E12E14E18E19E24E26E30G01G02G03G05
+        G06G07G08G09G10G11G12G13G14G15G16G17G19G20G21G22G23
+        G24G25G26G27G28G29G30G31G32J01J02J03R01R02R03R04R05
+        R06R07R08R09R10R11R13R14R15R16R17R18R19R20R21R22R23
+        R24R26  0  0  0  0  0  0  0  0  0  0  0  0  0  0  0
++        12 11 12 11 12  8  8  8  8  8  8  8  8  7  7  7  7
++         7  7  7  7  7  7  7  7  7  7  7  7  7  3  3  3  3
++         3  3  3  3  3  6  3  3  3  3  3  3  3  3  3  3  3
++         3  3  3  3  3  3  3  3  3  9 12 13  5  5  5  5  5
++         5  5  5  5  5  5  5  5  5  5  5  5  5  5  5  5  5
++         6  8  0  0  0  0  0  0  0  0  0  0  0  0  0  0  0
%c M  cc GPS ccc cccc cccc cccc cccc ccccc ccccc ccccc ccccc
%c cc cc ccc ccc cccc cccc cccc cccc ccccc ccccc ccccc ccccc
%f  1.2500000  1.025000000  0.00000000000  0.000000000000000
%f  0.0000000  0.000000000  0.00000000000  0.000000000000000
%i    0    0    0    0      0      0      0      0         0
%i    0    0    0    0      0      0      0      0         0
/* INFORMATION & ANALYSIS CENTER (IAC)            FINAL DATA
/* S/V CLOCKS ARE ALIGNED TO GPS & GLONASS TIME RESPECTIVELY
/* USING THE BROADCAST EPHEMERIS                            
/* PCV:IGS14_1984 OL/AL:FES2004  NONE     YN ORB:CoN CLK:CoN
*  2018 02 28 10 30  0.00000000
PC01 -32271.325024  27114.754993   1087.415970    423.681309
PC02   4346.443134  41933.954533   -810.923129   -258.353738
PC03 -14767.330943  39482.938978    537.094743     -6.740703
PC04 -39649.013024  14411.388007    512.855399     21.018672
PC05  21779.706776  36075.861276  -1127.123728   -155.466496
PC06  -5893.620281  29071.128225 -29624.253057   -680.132480
PC07 -21213.906008  23795.382716  27522.430672   -327.726639
PC08 -18883.410937  37768.118547   2291.443661    201.736041
PC09   5447.486881  36157.383613 -20588.240003   -360.573822
PC10  -6243.892449  25882.628752  32743.515494    -48.763926
PC11  14043.403996 -11446.374026 -21142.081135   -409.123460
PC12  14302.792285  10966.395808 -21268.802514    386.596915
PC13  -8262.241481  39523.688618 -12524.045879   -226.054174
PC14  21587.498083  -2150.173023  17573.195875    248.062952
PE01 -20645.640200  14277.705915  15686.114165   -287.108031
PE02  20612.747487 -14289.807904 -15712.804720      6.060387
PE03   9543.893242 -14843.460796  23763.238116     -4.242088
PE04   8173.868178  24823.373472 -13892.098415     15.153796
PE05  21715.698417   3856.640684  19739.141451    313.296624
PE07 -21158.821996 -20271.769611  -4167.080327     76.347223
PE08  -8454.585021 -24680.641167  13978.777396   6633.228178
PE09  21329.550039  20111.427131   4137.625387   6862.234929
PE11  11502.414078  14491.286488 -23095.128433   1846.478644
PE12  -2178.358982  27669.680739 -10244.385209   3606.967107
PE14 -12256.118318  10264.357851  17064.818921   6623.627961
PE18  17194.785074 -14333.324203 -23656.692851   6393.934345
PE19 -10958.393006  13220.125375 -24109.668016     19.855531
PE24  20859.369764   8806.325150  19041.788731   6838.453888
PE26 -18341.107674   6627.272655  22277.613150   6219.394204
PE30   -243.034520 -16359.843056 -24677.409364   6040.884840
PG01 -11504.795296  21504.991598 -10289.052211    -31.358637
PG02  20753.971707 -12079.137291 -10495.673808    187.691465
PG03  -5359.513572  14294.333337 -21748.462905     18.588403
PG05  23108.173257  -3775.541895  12631.909886    -13.225064
PG06  18274.444404    216.607472 -19243.970084    413.766991
PG07   3089.107052  16907.996524  20333.323010    230.137934
PG08  -7175.305181  18610.017227  17525.773968    -92.754830
PG09   8218.921983  25215.534933   1292.940529    503.926380
PG10 -23302.037627 -10962.672208   6853.703658    165.138966
PG11  -7811.090679  25412.656651  -2192.499458   -736.886560
PG12   7699.509669 -12820.672966 -22110.482683    347.916527
PG13  12941.060274 -10038.672683  20793.241345    -95.599207
PG14 -15637.309220  -6796.487314 -20127.695354    -94.550648
PG15   6085.327227 -19504.754369  16555.911112   -356.753222
PG16 -23137.742145   1139.820090  13224.461913     31.315964
PG17  14186.992343  15889.404217 -15562.606362   -119.604497
PG19  15291.507476   8114.981547 -20366.065044   -454.061968
PG20   5653.572547 -15038.782053  21004.888893    501.999392
PG21  -6725.347411 -15583.995743  21234.489696   -425.189085
PG22 -13097.549868  12227.260206 -19365.330033   -306.907520
PG23   -606.888638  24228.982378 -10082.234232   -218.809372
PG24  13186.473123 -21862.288128  -6876.580518    -46.657400
PG25  -7337.174850 -16033.621597 -20106.730074   -545.932771
PG26 -26128.946517  -4096.033758   3115.208682   -234.563845
PG27 -13906.936715   5273.155859  21933.313497    368.451627
PG28  20090.504244  14365.410734  10332.245573    692.800597
PG29  -4050.622740 -26170.613347  -2189.450324    489.610506
PG30  10964.096833  11061.009978  21518.815776     99.420441
PG31 -19289.006846    732.749676 -18381.458134    138.676665
PG32 -15536.167204 -15105.955455 -15382.737751   -530.739971
PJ01 -28011.663283  16737.370800 -22051.590233    -83.686250
PJ02 -30384.646330  28802.123858   9877.141904     -0.063035
PJ03 -25341.246493  24617.028261  28144.105856    -16.278823
PR01  -5933.563054 -16426.857071  18583.547272     22.703102
PR02 -19061.206606 -16926.981636   1494.560680    297.482050
PR03 -19357.153460  -6778.271670 -15157.890355    125.382762
PR04  -7934.445715   7643.702436 -22993.520371    251.595946
PR05   7467.441295  16988.665397 -17515.053499   -256.043850
PR06  19597.876104  16294.773827   -583.817652    127.881225
PR07  19176.240051   6396.775113  15566.209406    -31.249317
PR08   8487.509136  -7186.596701  23004.031026     38.325945
PR09  14074.159519   5574.844002  20558.732296     45.514999
PR10  23993.160559  -4865.937850   7272.180353     19.310478
PR11  19733.731906 -12286.251304 -10534.631163    -22.876101
PR13 -14559.654639  -4774.137985 -20415.185929     -7.945744
PR14 -23908.028524   4682.221489  -7543.301755     25.057629
PR15 -21826.583013  11189.624438   7200.299312     -6.941761
PR16  -4573.111108  12705.595857  21639.661705     86.682765
PR17 -11132.697617   1922.108714  22887.229736    112.823842
PR18 -10049.969376  18501.342668  14370.459962    186.475655
PR19  -3855.802019  25079.914947  -2575.393838    -45.944749
PR20   5412.581691  16278.313618 -18841.526239   -328.884528
PR21  11068.864762  -2190.795692 -22867.340945     27.304408
PR22   9585.578878 -19979.065502 -12744.678667    -22.524155
PR23   1731.788979 -24723.310327   6054.083275    138.897716
PR24  -6020.389851 -15643.212513  19218.116432   -163.036669
PR26   5622.905302  16479.154655 -18631.986810      2.283436
EOF
